{"type": "FeatureCollection", "features": [ {"type": "Feature", "properties": {"norad_id": 38054, "name": "COSMOS 2251 DEB", "group": "cosmos-2251-debris", "lat": -67.816071591024, "lon": -153.40666853258224, "alt_km": 885.8521333257795, "timestamp": "2025-12-21T11:31:43.257639+00:00", "meta": {"OBJECT_NAME": "COSMOS 2251 DEB", "OBJECT_ID": "1993-036BRL", "EPOCH": "2025-12-20T18:35:17.689920", "MEAN_MOTION": 13.62376854, "ECCENTRICITY": 0.03575009, "INCLINATION": 73.9533, "RA_OF_ASC_NODE": 252.6421, "ARG_OF_PERICENTER": 229.1382, "MEAN_ANOMALY": 192.3982, "EPHEMERIS_TYPE": 0, "CLASSIFICATION_TYPE": "U", "NORAD_CAT_ID": 38054, "ELEMENT_SET_NO": 999, "REV_AT_EPOCH": 67289, "BSTAR": 0.0012229004, "MEAN_MOTION_DOT": 1.432e-05, "MEAN_MOTION_DDOT": 0}, "tle": {"line1": "1 38054U 93036BRL 25354.77451030  .00001432  00000+0  12229-2 0  9994", "line2": "2 38054  73.9533 252.6421 0357500 229.1382 192.3982 13.62376854672892"}}, "geometry": {"type": "Point", "coordinates": [-153.40666853258224, -67.816071591024]}}, {"type": "Feature", "properties": {"norad_id": 38055, "name": "COSMOS 2251 DEB", "group": "cosmos-2251-debris", "lat": -36.35684019652124, "lon": 21.78013428052587, "alt_km": 650.1411698293932, "timestamp": "2025-12-21T11:31:43.257650+00:00", "meta": {"OBJECT_NAME": "COSMOS 2251 DEB", "OBJECT_ID": "1993-036BRM", "EPOCH": "2025-12-20T07:43:08.868288", "MEAN_MOTION": 14.77047435, "ECCENTRICITY": 0.00660367, "INCLINATION": 74.0077, "RA_OF_ASC_NODE": 191.8677, "ARG_OF_PERICENTER": 317.7505, "MEAN_ANOMALY": 222.1264, "EPHEMERIS_TYPE": 0, "CLASSIFICATION_TYPE": "U", "NORAD_CAT_ID": 38055, "ELEMENT_SET_NO": 999, "REV_AT_EPOCH": 60794, "BSTAR": 0.00044182386, "MEAN_MOTION_DOT": 3.197e-05, "MEAN_MOTION_DDOT": 0}, "tle": {"line1": "1 38055U 93036BRM 25354.32163042  .00003197  00000+0  44182-3 0  9993", "line2": "2 38055  74.0077 191.8677 0066036 317.7505 222.1264 14.77047435607943"}}, "geometry": {"type": "Point", "coordinates": [21.78013428052587, -36.35684019652124]}}, {"type": "Feature", "properties": {"norad_id": 38060, "name": "COSMOS 2251 DEB", "group": "cosmos-2251-debris", "lat": 29.229903039612548, "lon": -72.25811279898316, "alt_km": 637.9957507567942, "timestamp": "2025-12-21T11:31:43.257660+00:00", "meta": {"OBJECT_NAME": "COSMOS 2251 DEB", "OBJECT_ID": "1993-036BRS", "EPOCH": "2025-12-21T01:33:01.987776", "MEAN_MOTION": 14.63900324, "ECCENTRICITY": 0.0058488, "INCLINATION": 74.0436, "RA_OF_ASC_NODE": 279.3269, "ARG_OF_PERICENTER": 23.1556, "MEAN_ANOMALY": 337.2227, "EPHEMERIS_TYPE": 0, "CLASSIFICATION_TYPE": "U", "NORAD_CAT_ID": 38060, "ELEMENT_SET_NO": 999, "REV_AT_EPOCH": 72086, "BSTAR": 0.00036512, "MEAN_MOTION_DOT": 1.926e-05, "MEAN_MOTION_DDOT": 0}, "tle": {"line1": "1 38060U 93036BRS 25355.06460634  .00001926  00000+0  36512-3 0  9994", "line2": "2 38060  74.0436 279.3269 0058488  23.1556 337.2227 14.63900324720867"}}, "geometry": {"type": "Point", "coordinates": [-72.25811279898316, 29.229903039612548]}}, {"type": "Feature", "properties": {"norad_id": 38062, "name": "COSMOS 2251 DEB", "group": "cosmos-2251-debris", "lat": -70.78979314651187, "lon": 148.20049081309713, "alt_km": 595.6027090949528, "timestamp": "2025-12-21T11:31:43.257670+00:00", "meta": {"OBJECT_NAME": "COSMOS 2251 DEB", "OBJECT_ID": "1993-036BRU", "EPOCH": "2025-12-20T12:40:12.328608", "MEAN_MOTION": 14.95206267, "ECCENTRICITY": 0.00129431, "INCLINATION": 74.0088, "RA_OF_ASC_NODE": 274.7346, "ARG_OF_PERICENTER": 42.7602, "MEAN_ANOMALY": 131.9089, "EPHEMERIS_TYPE": 0, "CLASSIFICATION_TYPE": "U", "NORAD_CAT_ID": 38062, "ELEMENT_SET_NO": 999, "REV_AT_EPOCH": 63146, "BSTAR": 0.0014745207, "MEAN_MOTION_DOT": 0.00016237, "MEAN_MOTION_DDOT": 0}, "tle": {"line1": "1 38062U 93036BRU 25354.52792047  .00016237  00000+0  14745-2 0  9996", "line2": "2 38062  74.0088 274.7346 0012943  42.7602 131.9089 14.95206267631464"}}, "geometry": {"type": "Point", "coordinates": [148.20049081309713, -70.78979314651187]}}, {"type": "Feature", "properties": {"norad_id": 38064, "name": "COSMOS 2251 DEB", "group": "cosmos-2251-debris", "lat": 38.256031024158546, "lon": 120.59932223506853, "alt_km": 735.0463297549877, "timestamp": "2025-12-21T11:31:43.257680+00:00", "meta": {"OBJECT_NAME": "COSMOS 2251 DEB", "OBJECT_ID": "1993-036BRW", "EPOCH": "2025-12-19T18:07:41.080512", "MEAN_MOTION": 14.56354752, "ECCENTRICITY": 0.0047209, "INCLINATION": 74.0226, "RA_OF_ASC_NODE": 110.8167, "ARG_OF_PERICENTER": 229.1842, "MEAN_ANOMALY": 130.5224, "EPHEMERIS_TYPE": 0, "CLASSIFICATION_TYPE": "U", "NORAD_CAT_ID": 38064, "ELEMENT_SET_NO": 999, "REV_AT_EPOCH": 71967, "BSTAR": 0.00064457855, "MEAN_MOTION_DOT": 2.872e-05, "MEAN_MOTION_DDOT": 0}, "tle": {"line1": "1 38064U 93036BRW 25353.75533658  .00002872  00000+0  64458-3 0  9990", "line2": "2 38064  74.0226 110.8167 0047209 229.1842 130.5224 14.56354752719677"}}, "geometry": {"type": "Point", "coordinates": [120.59932223506853, 38.256031024158546]}}, {"type": "Feature", "properties": {"norad_id": 38067, "name": "COSMOS 2251 DEB", "group": "cosmos-2251-debris", "lat": 7.47838491661472, "lon": 75.61800075093585, "alt_km": 721.8732666596025, "timestamp": "2025-12-21T11:31:43.257691+00:00", "meta": {"OBJECT_NAME": "COSMOS 2251 DEB", "OBJECT_ID": "1993-036BRZ", "EPOCH": "2025-12-20T00:18:38.290752", "MEAN_MOTION": 14.61151533, "ECCENTRICITY": 0.00696951, "INCLINATION": 74.0171, "RA_OF_ASC_NODE": 260.5817, "ARG_OF_PERICENTER": 46.2502, "MEAN_ANOMALY": 329.5601, "EPHEMERIS_TYPE": 0, "CLASSIFICATION_TYPE": "U", "NORAD_CAT_ID": 38067, "ELEMENT_SET_NO": 999, "REV_AT_EPOCH": 62662, "BSTAR": 0.00024256948, "MEAN_MOTION_DOT": 1.204e-05, "MEAN_MOTION_DDOT": 0}, "tle": {"line1": "1 38067U 93036BRZ 25354.01294318  .00001204  00000+0  24257-3 0  9991", "line2": "2 38067  74.0171 260.5817 0069695  46.2502 329.5601 14.61151533626627"}}, "geometry": {"type": "Point", "coordinates": [75.61800075093585, 7.47838491661472]}}, {"type": "Feature", "properties": {"norad_id": 38068, "name": "COSMOS 2251 DEB", "group": "cosmos-2251-debris", "lat": -42.46011091859188, "lon": 127.39702665332635, "alt_km": 793.5615078335113, "timestamp": "2025-12-21T11:31:43.257701+00:00", "meta": {"OBJECT_NAME": "COSMOS 2251 DEB", "OBJECT_ID": "1993-036BSA", "EPOCH": "2025-11-26T00:12:22.263264", "MEAN_MOTION": 14.35960004, "ECCENTRICITY": 0.00240903, "INCLINATION": 74.0219, "RA_OF_ASC_NODE": 338.9788, "ARG_OF_PERICENTER": 72.1007, "MEAN_ANOMALY": 288.2769, "EPHEMERIS_TYPE": 0, "CLASSIFICATION_TYPE": "U", "NORAD_CAT_ID": 38068, "ELEMENT_SET_NO": 999, "REV_AT_EPOCH": 66406, "BSTAR": 0.00028750999, "MEAN_MOTION_DOT": 8.11e-06, "MEAN_MOTION_DDOT": 0}, "tle": {"line1": "1 38068U 93036BSA 25330.00859101  .00000811  00000+0  28751-3 0  9998", "line2": "2 38068  74.0219 338.9788 0024090  72.1007 288.2769 14.35960004664064"}}, "geometry": {"type": "Point", "coordinates": [127.39702665332635, -42.46011091859188]}}, {"type": "Feature", "properties": {"norad_id": 38197, "name": "COSMOS 2251 DEB", "group": "cosmos-2251-debris", "lat": -21.72622912680673, "lon": -26.71595840570691, "alt_km": 698.0358943388492, "timestamp": "2025-12-21T11:31:43.257712+00:00", "meta": {"OBJECT_NAME": "COSMOS 2251 DEB", "OBJECT_ID": "1993-036BSM", "EPOCH": "2025-12-21T05:07:08.655168", "MEAN_MOTION": 14.743947, "ECCENTRICITY": 0.0125014, "INCLINATION": 73.9376, "RA_OF_ASC_NODE": 340.4011, "ARG_OF_PERICENTER": 215.8524, "MEAN_ANOMALY": 143.4213, "EPHEMERIS_TYPE": 0, "CLASSIFICATION_TYPE": "U", "NORAD_CAT_ID": 38197, "ELEMENT_SET_NO": 999, "REV_AT_EPOCH": 85880, "BSTAR": 0.0020186, "MEAN_MOTION_DOT": 0.00015188, "MEAN_MOTION_DDOT": 0}, "tle": {"line1": "1 38197U 93036BSM 25355.21329462  .00015188  00000+0  20186-2 0  9999", "line2": "2 38197  73.9376 340.4011 0125014 215.8524 143.4213 14.74394700858804"}}, "geometry": {"type": "Point", "coordinates": [-26.71595840570691, -21.72622912680673]}}, {"type": "Feature", "properties": {"norad_id": 38199, "name": "COSMOS 2251 DEB", "group": "cosmos-2251-debris", "lat": -70.05561778933372, "lon": -4.636007318154425, "alt_km": 845.4593296271523, "timestamp": "2025-12-21T11:31:43.257722+00:00", "meta": {"OBJECT_NAME": "COSMOS 2251 DEB", "OBJECT_ID": "1993-036BSP", "EPOCH": "2025-12-18T20:33:26.116992", "MEAN_MOTION": 13.64802181, "ECCENTRICITY": 0.0369926, "INCLINATION": 73.9559, "RA_OF_ASC_NODE": 52.1388, "ARG_OF_PERICENTER": 337.4029, "MEAN_ANOMALY": 21.1146, "EPHEMERIS_TYPE": 0, "CLASSIFICATION_TYPE": "U", "NORAD_CAT_ID": 38199, "ELEMENT_SET_NO": 999, "REV_AT_EPOCH": 61105, "BSTAR": 0.00049100524, "MEAN_MOTION_DOT": 6.08e-06, "MEAN_MOTION_DDOT": 0}, "tle": {"line1": "1 38199U 93036BSP 25352.85655228  .00000608  00000+0  49101-3 0  9990", "line2": "2 38199  73.9559  52.1388 0369926 337.4029  21.1146 13.64802181611052"}}, "geometry": {"type": "Point", "coordinates": [-4.636007318154425, -70.05561778933372]}}, {"type": "Feature", "properties": {"norad_id": 38208, "name": "COSMOS 2251 DEB", "group": "cosmos-2251-debris", "lat": -50.88366168090789, "lon": -97.78922096504616, "alt_km": 622.8755896641524, "timestamp": "2025-12-21T11:31:43.257733+00:00", "meta": {"OBJECT_NAME": "COSMOS 2251 DEB", "OBJECT_ID": "1993-036BSY", "EPOCH": "2025-12-16T00:13:39.722592", "MEAN_MOTION": 14.84023361, "ECCENTRICITY": 0.00017369, "INCLINATION": 74.0064, "RA_OF_ASC_NODE": 72.4172, "ARG_OF_PERICENTER": 150.2716, "MEAN_ANOMALY": 26.1687, "EPHEMERIS_TYPE": 0, "CLASSIFICATION_TYPE": "U", "NORAD_CAT_ID": 38208, "ELEMENT_SET_NO": 999, "REV_AT_EPOCH": 71207, "BSTAR": 0.0016436813, "MEAN_MOTION_DOT": 0.00013687, "MEAN_MOTION_DDOT": 0}, "tle": {"line1": "1 38208U 93036BSY 25350.00948753  .00013687  00000+0  16437-2 0  9990", "line2": "2 38208  74.0064  72.4172 0001736 150.2716  26.1687 14.84023361712075"}}, "geometry": {"type": "Point", "coordinates": [-97.78922096504616, -50.88366168090789]}}]}